$$SOE
2461295.500000000, A.D. 2026-Sep-12 00:00:00.0000, 2.279402234427058E+08, -6.434682556347191E+07, -1.076961484632148E+08,
2461302.500000000, A.D. 2026-Sep-19 00:00:00.0000, 2.307818612098788E+08, -4.877705600607889E+07, -1.073343512324256E+08,
2461309.500000000, A.D. 2026-Sep-26 00:00:00.0000, 2.329800931173208E+08, -3.307139595696448E+07, -1.066733095480164E+08,
2461316.500000000, A.D. 2026-Oct-03 00:00:00.0000, 2.345228463458180E+08, -1.727276867911106E+07, -1.057121431428238E+08,
2461323.500000000, A.D. 2026-Oct-10 00:00:00.0000, 2.354016417815961E+08, -1.425298156583756E+06, -1.044516891319078E+08,
2461330.500000000, A.D. 2026-Oct-17 00:00:00.0000, 2.356117603519072E+08, 1.442618351651190E+07, -1.028945244425150E+08,
2461337.500000000, A.D. 2026-Oct-24 00:00:00.0000, 2.351523355527962E+08, 3.023665257002272E+07, -1.010449530322392E+08,
2461344.500000000, A.D. 2026-Oct-31 00:00:00.0000, 2.340263681296553E+08, 4.596141758467815E+07, -9.890895777198516E+07,
2461351.500000000, A.D. 2026-Nov-07 00:00:00.0000, 2.322406626406815E+08, 6.155663447886881E+07, -9.649411850688979E+07,
2461358.500000000, A.D. 2026-Nov-14 00:00:00.0000, 2.298056890574355E+08, 7.697979713231081E+07, -9.380949924569440E+07,
2461365.500000000, A.D. 2026-Nov-21 00:00:00.0000, 2.267353738802135E+08, 9.219018962906449E+07, -9.086550857831369E+07,
2461372.500000000, A.D. 2026-Nov-28 00:00:00.0000, 2.230468289234117E+08, 1.071492847439872E+08, -8.767373882569624E+07,
2461379.500000000, A.D. 2026-Dec-05 00:00:00.0000, 2.187600326768799E+08, 1.218210785820866E+08, -8.424679028386840E+07,
2461386.500000000, A.D. 2026-Dec-12 00:00:00.0000, 2.138974770133198E+08, 1.361723583592826E+08, -8.059808653562564E+07,
2461393.500000000, A.D. 2026-Dec-19 00:00:00.0000, 2.084837904633505E+08, 1.501729005865085E+08, -7.674168674657805E+07,
2461400.500000000, A.D. 2026-Dec-26 00:00:00.0000, 2.025453507380750E+08, 1.637955992260648E+08, -7.269210063783151E+07,
2461407.500000000, A.D. 2027-Jan-02 00:00:00.0000, 1.961098986337951E+08, 1.770165268551591E+08, -6.846411109384748E+07,
2461414.500000000, A.D. 2027-Jan-09 00:00:00.0000, 1.892061638188589E+08, 1.898149343381729E+08, -6.407260844397595E+07,
2461421.500000000, A.D. 2027-Jan-16 00:00:00.0000, 1.818635111121910E+08, 2.021731961461712E+08, -5.953243947711863E+07,
2461428.500000000, A.D. 2027-Jan-23 00:00:00.0000, 1.741116139070638E+08, 2.140767094457158E+08, -5.485827327571012E+07,
2461435.500000000, A.D. 2027-Jan-30 00:00:00.0000, 1.659801595664653E+08, 2.255137555304011E+08, -5.006448504944009E+07,
2461442.500000000, A.D. 2027-Feb-06 00:00:00.0000, 1.574985900086555E+08, 2.364753325227165E+08, -4.516505832557511E+07,
2461449.500000000, A.D. 2027-Feb-13 00:00:00.0000, 1.486958781809650E+08, 2.469549687164185E+08, -4.017350501693261E+07,
2461456.500000000, A.D. 2027-Feb-20 00:00:00.0000, 1.396003378229837E+08, 2.569485231933504E+08, -3.510280233596175E+07,
2461463.500000000, A.D. 2027-Feb-27 00:00:00.0000, 1.302394665852156E+08, 2.664539770556067E+08, -2.996534568142314E+07,
2461470.500000000, A.D. 2027-Mar-06 00:00:00.0000, 1.206398234029535E+08, 2.754712227617500E+08, -2.477291610114056E+07,
2461477.500000000, A.D. 2027-Mar-13 00:00:00.0000, 1.108269358400629E+08, 2.840018581528481E+08, -1.953666035096660E+07,
2461484.500000000, A.D. 2027-Mar-20 00:00:00.0000, 1.008252332493386E+08, 2.920489879052812E+08, -1.426708180308037E+07,
2461491.500000000, A.D. 2027-Mar-27 00:00:00.0000, 9.065800278787407E+07, 2.996170345454355E+08, -8.974040586872593E+06,
2461498.500000000, A.D. 2027-Apr-03 00:00:00.0000, 8.034736533313984E+07, 3.067115608707982E+08, -3.666761389497131E+06,
2461505.500000000, A.D. 2027-Apr-10 00:00:00.0000, 6.991426831925784E+07, 3.133391050126851E+08, 1.646152553950816E+06,
2461512.500000000, A.D. 2027-Apr-17 00:00:00.0000, 5.937849266642568E+07, 3.195070287727932E+08, 6.956700607055634E+06,
2461519.500000000, A.D. 2027-Apr-24 00:00:00.0000, 4.875867127541483E+07, 3.252233793617196E+08, 1.225746217809297E+07,
2461526.500000000, A.D. 2027-May-01 00:00:00.0000, 3.807231704757682E+07, 3.304967644020681E+08, 1.754157145914860E+07,
2461533.500000000, A.D. 2027-May-08 00:00:00.0000, 2.733585867617046E+07, 3.353362405142931E+08, 2.280269035958906E+07,
2461540.500000000, A.D. 2027-May-15 00:00:00.0000, 1.656468092801485E+07, 3.397512158168300E+08, 2.803498057623971E+07,
2461547.500000000, A.D. 2027-May-22 00:00:00.0000, 5.773166326991747E+06, 3.437513629858608E+08, 3.323307532976802E+07,
2461554.500000000, A.D. 2027-May-29 00:00:00.0000, -5.025259699917194E+06, 3.473465405702918E+08, 3.839205082312810E+07,
2461561.500000000, A.D. 2027-Jun-05 00:00:00.0000, -1.581808039869158E+07, 3.505467248361869E+08, 4.350739798066060E+07,
2461568.500000000, A.D. 2027-Jun-12 00:00:00.0000, -2.659363886296489E+07, 3.533619516984256E+08, 4.857499498357031E+07,
2461575.500000000, A.D. 2027-Jun-19 00:00:00.0000, -3.734108984192921E+07, 3.558022669432194E+08, 5.359108077827300E+07,
2461582.500000000, A.D. 2027-Jun-26 00:00:00.0000, -4.805035245905431E+07, 3.578776836556526E+08, 5.855222967178036E+07,
2461589.500000000, A.D. 2027-Jul-03 00:00:00.0000, -5.871206413920761E+07, 3.595981460821234E+08, 6.345532711292440E+07,
2461596.500000000, A.D. 2027-Jul-10 00:00:00.0000, -6.931753602916600E+07, 3.609734992092570E+08, 6.829754672508883E+07,
2461603.500000000, A.D. 2027-Jul-17 00:00:00.0000, -7.985871010697953E+07, 3.620134633469403E+08, 7.307632861786936E+07,
2461610.500000000, A.D. 2027-Jul-24 00:00:00.0000, -9.032811798258439E+07, 3.627276130332947E+08, 7.778935896417204E+07,
2461617.500000000, A.D. 2027-Jul-31 00:00:00.0000, -1.007188410802478E+08, 3.631253599327096E+08, 8.243455080876631E+07,
2461624.500000000, A.D. 2027-Aug-07 00:00:00.0000, -1.110244724615847E+08, 3.632159403721012E+08, 8.701002619080818E+07,
2461631.500000000, A.D. 2027-Aug-14 00:00:00.0000, -1.212390826093018E+08, 3.630084068132389E+08, 9.151409973136871E+07,
2461638.500000000, A.D. 2027-Aug-21 00:00:00.0000, -1.313571885377200E+08, 3.625116194941260E+08, 9.594526330633442E+07,
2461645.500000000, A.D. 2027-Aug-28 00:00:00.0000, -1.413737227630169E+08, 3.617342390835239E+08, 1.003021715350260E+08,
2461652.500000000, A.D. 2027-Sep-04 00:00:00.0000, -1.512840032595626E+08, 3.606847225394948E+08, 1.045836283422453E+08,
2461659.500000000, A.D. 2027-Sep-11 00:00:00.0000, -1.610837057251222E+08, 3.593713212325215E+08, 1.087885746085161E+08,
2461666.500000000, A.D. 2027-Sep-18 00:00:00.0000, -1.707688379418438E+08, 3.578020804341548E+08, 1.129160767819441E+08,
2461673.500000000, A.D. 2027-Sep-25 00:00:00.0000, -1.803357159205934E+08, 3.559848398755177E+08, 1.169653163639138E+08,
2461680.500000000, A.D. 2027-Oct-02 00:00:00.0000, -1.897809416673259E+08, 3.539272352135060E+08, 1.209355802052713E+08,
2461687.500000000, A.D. 2027-Oct-09 00:00:00.0000, -1.991013824614781E+08, 3.516367002353556E+08, 1.248262515540072E+08,
2461694.500000000, A.D. 2027-Oct-16 00:00:00.0000, -2.082941514957470E+08, 3.491204696037048E+08, 1.286368017900509E+08,
2461701.500000000, A.D. 2027-Oct-23 00:00:00.0000, -2.173565895312067E+08, 3.463855820125657E+08, 1.323667827714217E+08,
2461708.500000000, A.D. 2027-Oct-30 00:00:00.0000, -2.262862471094059E+08, 3.434388842574684E+08, 1.360158197586781E+08,
2461715.500000000, A.D. 2027-Nov-06 00:00:00.0000, -2.350808684048365E+08, 3.402870372565764E+08, 1.395836050714829E+08,
2461722.500000000, A.D. 2027-Nov-13 00:00:00.0000, -2.437383786252221E+08, 3.369365218694410E+08, 1.430698924477157E+08,
2461729.500000000, A.D. 2027-Nov-20 00:00:00.0000, -2.522568719809226E+08, 3.333936422586530E+08, 1.464744916191876E+08,
2461736.500000000, A.D. 2027-Nov-27 00:00:00.0000, -2.606345985362481E+08, 3.296645296982707E+08, 1.497972631596683E+08,
2461743.500000000, A.D. 2027-Dec-04 00:00:00.0000, -2.688699519020857E+08, 3.257551476951704E+08, 1.530381138322376E+08,
2461750.500000000, A.D. 2027-Dec-11 00:00:00.0000, -2.769614582574968E+08, 3.216712974193733E+08, 1.561969923762880E+08,
2461757.500000000, A.D. 2027-Dec-18 00:00:00.0000, -2.849077663657646E+08, 3.174186230691823E+08, 1.592738856514015E+08,
2461764.500000000, A.D. 2027-Dec-25 00:00:00.0000, -2.927076383776532E+08, 3.130026171394170E+08, 1.622688150964730E+08,
2461771.500000000, A.D. 2028-Jan-01 00:00:00.0000, -3.003599413289698E+08, 3.084286255829686E+08, 1.651818334762509E+08,
$$EOE